H-2A R/B                
1 28932U 06002B   26191.51779324  .00006037  00000+0  28784-3 0  9996
2 28932  98.2582 349.4657 0050522 181.8998 178.2050 15.18397978113068
RESURS-DK 1             
1 29228U 06021A   26190.24541127  .00001215  00000+0  74141-4 0  9995
2 29228  69.9328 282.4503 0006781 277.8398  82.1999 15.13306588105916
CZ-4B R/B               
1 29507U 06046C   26191.52398193  .00002744  00000+0  13682-3 0  9997
2 29507  97.5443 236.0591 0032129 198.4310 161.5762 15.17958351 78677
CZ-2C R/B               
1 31114U 07010B   26190.25116606  .00000044  00000+0  39518-4 0  9990
2 31114  98.4114 297.5248 0057908 301.3979  58.1542 14.20280908996976
COSMO-SKYMED 1          
1 31598U 07023A   26191.86128837  .00001295  00000+0  11713-3 0  9992
2 31598  97.8844  23.9174 0001098  98.7005 261.4341 14.97206792 33331
COSMOS 2428             
1 31792U 07029A   26190.51520218  .00000159  00000+0  11084-3 0  9993
2 31792  70.9381 307.5965 0007171  92.2746 267.9197 14.12931512981304
SL-16 R/B               
1 31793U 07029B   26191.22230965 -.00000075  00000+0 -14250-4 0  9998
2 31793  70.9750 274.8067 0002090 257.2336 133.5734 14.14850723982703
KORONAS-FOTON           
1 33504U 09003A   26190.79768631  .00009555  00000+0  19314-3 0  9996
2 33504  82.4294 148.6652 0012476  78.8517 281.4133 15.46211676964598
CZ-2C R/B               
1 37731U 11030B   26191.35946575  .00000702  00000+0  94536-4 0  9998
2 37731  97.8667 146.3297 0051088 312.2886 199.7792 14.81526536808258
H-2A R/B                
1 38341U 12025E   26191.50345159  .00001201  00000+0  11197-3 0  9995
2 38341  98.4849 168.5749 0042283 271.0239  88.6136 14.95829792766575
SHIJIAN-16 (SJ-16)      
1 39358U 13057A   26191.83262466  .00001304  00000+0  12901-3 0  9993
2 39358  74.9735 311.8972 0015972 175.3585 184.7754 14.92664609689875
SL-4 R/B                
1 39679U 14021B   26191.13268538  .00007771  00000+0  16183-3 0  9990
2 39679  51.6056  98.3228 0089998 189.8462 170.0762 15.42416724675155
ALOS-2                  
1 39766U 14029A   26191.81066769  .00000543  00000+0  79527-4 0  9994
2 39766  97.9220 288.6371 0001632  91.4921 268.6478 14.79475060655072
YAOGAN-29               
1 41038U 15069A   26191.85895495  .00000285  00000+0  41575-4 0  9999
2 41038  98.0028 220.5280 0001112  20.8797 339.2462 14.83105154574133
ASTRO-H (HITOMI)        
1 41337U 16012A   26191.49201072  .00001745  00000+0  97284-4 0  9992
2 41337  30.9996 283.6687 0009565 127.9678 232.1825 15.10620801570819
HXMT (HUIYAN)           
1 42758U 17034A   26191.87907926  .00003050  00000+0  15407-3 0  9995
2 42758  43.0149  51.1005 0032656 294.4304  65.3139 15.18664592501267
SAOCOM 1A               
1 43641U 18076A   26191.83222337  .00000625  00000+0  85116-4 0  9996
2 43641  97.8893  18.2378 0001495  83.4769 276.6614 14.82147474419603
H-2A R/B                
1 43682U 18084L   26191.11105830  .00016036  00000+0  32750-3 0  9997
2 43682  98.8546  75.0238 0020751 319.4603  40.5095 15.46067255424667
SAOCOM 1B               
1 46265U 20059A   26191.79594962  .00000236  00000+0  36204-4 0  9998
2 46265  97.8896  17.2978 0001539  81.0469 279.0918 14.82155655316987
CSS (TIANHE)            
1 48274U 21035A   26191.66389666  .00001391  00000+0  22297-4 0  9994
2 48274  41.4687 179.2973 0002646 286.4983  73.5564 15.58017309296830
COSMOS 2550             
1 48865U 21056A   26191.82508808  .00000620  00000+0  24683-4 0  9997
2 48865  67.1431  28.4032 0008456 271.8688  88.1498 15.33797750282341
CZ-2C R/B               
1 52794U 22058K   26191.00643723  .00033849  00000+0  35317-3 0  9996
2 52794  50.1859  44.6364 0030619   1.0479 359.0554 15.63552330229214
CZ-2C R/B               
1 54039U 22132E   26190.99135490  .00055194  00000+0  37901-3 0  9995
2 54039  97.2898 199.0795 0010409   4.6583 355.4777 15.74465025209532
GSLV R/B                
1 54149U 22138AN  26190.23907571  .00002182  00000+0  18439-3 0  9991
2 54149  87.3814 125.5791 0024040  71.8269 288.5577 14.97366438202118
XRISM                   
1 57800U 23137A   26191.41934508  .00002427  00000+0  12993-3 0  9990
2 57800  31.0008 209.0912 0007815 198.8570 161.1780 15.12649774156389
ACS3                    
1 59588U 24077B   26191.16291775  .00019046  00000+0  13257-1 0  9990
2 59588  97.1735 104.8549 0117764  42.7288 318.2962 13.95378034111240
SPACEMOBILE-003         
1 61045U 24163A   26191.15284552  .00000447  00000+0  34676-4 0  9997
2 61045  52.9663 203.8314 0005319 179.8371 180.2626 15.20788598101262
SPACEMOBILE-005         
1 61046U 24163B   26191.46492691  .00003906  00000+0  18962-3 0  9999
2 61046  52.9790 202.3393 0008778 181.1701 178.9274 15.20764248101304
SPACEMOBILE-001         
1 61047U 24163C   26191.06904487  .00000518  00000+0  37895-4 0  9990
2 61047  52.9749 203.8741 0007553 178.7608 181.3406 15.20815495101249
SPACEMOBILE-002         
1 61048U 24163D   26191.38159234  .00012242  00000+0  56055-3 0  9993
2 61048  52.9822 202.4780 0006213 190.6571 169.4293 15.20876875101299
